<?xml version="1.0" encoding="UTF-8"?>
<ndm xmlns:xsi="http://www.w3.org/2001/XMLSchema-instance" xsi:noNamespaceSchemaLocation="https://sanaregistry.org/r/ndmxml_unqualified/ndmxml-2.0.0-master-2.0.xsd">
<omm id="CCSDS_OMM_VERS" version="2.0">
<header><CREATION_DATE/><ORIGINATOR/></header><body><segment><metadata><OBJECT_NAME>ONEWEB-0211</OBJECT_NAME><OBJECT_ID>2021-045A</OBJECT_ID><CENTER_NAME>EARTH</CENTER_NAME><REF_FRAME>TEME</REF_FRAME><TIME_SYSTEM>UTC</TIME_SYSTEM><MEAN_ELEMENT_THEORY>SGP4</MEAN_ELEMENT_THEORY></metadata><data><meanElements><EPOCH>2024-09-09T08:50:21.785280</EPOCH><MEAN_MOTION>13.15538725</MEAN_MOTION><ECCENTRICITY>.0001754</ECCENTRICITY><INCLINATION>87.9083</INCLINATION><RA_OF_ASC_NODE>27.6878</RA_OF_ASC_NODE><ARG_OF_PERICENTER>103.3979</ARG_OF_PERICENTER><MEAN_ANOMALY>256.7347</MEAN_ANOMALY></meanElements><tleParameters><EPHEMERIS_TYPE>0</EPHEMERIS_TYPE><CLASSIFICATION_TYPE>U</CLASSIFICATION_TYPE><NORAD_CAT_ID>48767</NORAD_CAT_ID><ELEMENT_SET_NO>999</ELEMENT_SET_NO><REV_AT_EPOCH>15950</REV_AT_EPOCH><BSTAR>.64071E-2</BSTAR><MEAN_MOTION_DOT>.2425E-4</MEAN_MOTION_DOT><MEAN_MOTION_DDOT>0</MEAN_MOTION_DDOT></tleParameters></data></segment></body></omm>
<omm id="CCSDS_OMM_VERS" version="2.0">
<header><CREATION_DATE/><ORIGINATOR/></header><body><segment><metadata><OBJECT_NAME>ONEWEB-0223</OBJECT_NAME><OBJECT_ID>2021-045B</OBJECT_ID><CENTER_NAME>EARTH</CENTER_NAME><REF_FRAME>TEME</REF_FRAME><TIME_SYSTEM>UTC</TIME_SYSTEM><MEAN_ELEMENT_THEORY>SGP4</MEAN_ELEMENT_THEORY></metadata><data><meanElements><EPOCH>2024-09-09T14:50:52.671552</EPOCH><MEAN_MOTION>13.15549614</MEAN_MOTION><ECCENTRICITY>.0001715</ECCENTRICITY><INCLINATION>87.9085</INCLINATION><RA_OF_ASC_NODE>27.6477</RA_OF_ASC_NODE><ARG_OF_PERICENTER>118.7971</ARG_OF_PERICENTER><MEAN_ANOMALY>241.3332</MEAN_ANOMALY></meanElements><tleParameters><EPHEMERIS_TYPE>0</EPHEMERIS_TYPE><CLASSIFICATION_TYPE>U</CLASSIFICATION_TYPE><NORAD_CAT_ID>48768</NORAD_CAT_ID><ELEMENT_SET_NO>999</ELEMENT_SET_NO><REV_AT_EPOCH>15952</REV_AT_EPOCH><BSTAR>-.16834E-3</BSTAR><MEAN_MOTION_DOT>-.51E-6</MEAN_MOTION_DOT><MEAN_MOTION_DDOT>0</MEAN_MOTION_DDOT></tleParameters></data></segment></body></omm>
<omm id="CCSDS_OMM_VERS" version="2.0">
<header><CREATION_DATE/><ORIGINATOR/></header><body><segment><metadata><OBJECT_NAME>ONEWEB-0230</OBJECT_NAME><OBJECT_ID>2021-045C</OBJECT_ID><CENTER_NAME>EARTH</CENTER_NAME><REF_FRAME>TEME</REF_FRAME><TIME_SYSTEM>UTC</TIME_SYSTEM><MEAN_ELEMENT_THEORY>SGP4</MEAN_ELEMENT_THEORY></metadata><data><meanElements><EPOCH>2024-09-09T10:30:46.681920</EPOCH><MEAN_MOTION>13.15549555</MEAN_MOTION><ECCENTRICITY>.0001601</ECCENTRICITY><INCLINATION>87.9083</INCLINATION><RA_OF_ASC_NODE>27.7533</RA_OF_ASC_NODE><ARG_OF_PERICENTER>97.7841</ARG_OF_PERICENTER><MEAN_ANOMALY>262.3471</MEAN_ANOMALY></meanElements><tleParameters><EPHEMERIS_TYPE>0</EPHEMERIS_TYPE><CLASSIFICATION_TYPE>U</CLASSIFICATION_TYPE><NORAD_CAT_ID>48769</NORAD_CAT_ID><ELEMENT_SET_NO>999</ELEMENT_SET_NO><REV_AT_EPOCH>15976</REV_AT_EPOCH><BSTAR>.50914E-3</BSTAR><MEAN_MOTION_DOT>.204E-5</MEAN_MOTION_DOT><MEAN_MOTION_DDOT>0</MEAN_MOTION_DDOT></tleParameters></data></segment></body></omm>
<omm id="CCSDS_OMM_VERS" version="2.0">
<header><CREATION_DATE/><ORIGINATOR/></header><body><segment><metadata><OBJECT_NAME>ONEWEB-0237</OBJECT_NAME><OBJECT_ID>2021-045D</OBJECT_ID><CENTER_NAME>EARTH</CENTER_NAME><REF_FRAME>TEME</REF_FRAME><TIME_SYSTEM>UTC</TIME_SYSTEM><MEAN_ELEMENT_THEORY>SGP4</MEAN_ELEMENT_THEORY></metadata><data><meanElements><EPOCH>2024-09-09T10:14:47.690304</EPOCH><MEAN_MOTION>13.15546684</MEAN_MOTION><ECCENTRICITY>.0001644</ECCENTRICITY><INCLINATION>87.9090</INCLINATION><RA_OF_ASC_NODE>27.6916</RA_OF_ASC_NODE><ARG_OF_PERICENTER>111.2889</ARG_OF_PERICENTER><MEAN_ANOMALY>248.8417</MEAN_ANOMALY></meanElements><tleParameters><EPHEMERIS_TYPE>0</EPHEMERIS_TYPE><CLASSIFICATION_TYPE>U</CLASSIFICATION_TYPE><NORAD_CAT_ID>48770</NORAD_CAT_ID><ELEMENT_SET_NO>999</ELEMENT_SET_NO><REV_AT_EPOCH>15948</REV_AT_EPOCH><BSTAR>.12883E-3</BSTAR><MEAN_MOTION_DOT>.61E-6</MEAN_MOTION_DOT><MEAN_MOTION_DDOT>0</MEAN_MOTION_DDOT></tleParameters></data></segment></body></omm>
<omm id="CCSDS_OMM_VERS" version="2.0">
<header><CREATION_DATE/><ORIGINATOR/></header><body><segment><metadata><OBJECT_NAME>ONEWEB-0235</OBJECT_NAME><OBJECT_ID>2021-045E</OBJECT_ID><CENTER_NAME>EARTH</CENTER_NAME><REF_FRAME>TEME</REF_FRAME><TIME_SYSTEM>UTC</TIME_SYSTEM><MEAN_ELEMENT_THEORY>SGP4</MEAN_ELEMENT_THEORY></metadata><data><meanElements><EPOCH>2024-09-09T15:06:49.790016</EPOCH><MEAN_MOTION>13.15550932</MEAN_MOTION><ECCENTRICITY>.0001614</ECCENTRICITY><INCLINATION>87.9082</INCLINATION><RA_OF_ASC_NODE>27.6546</RA_OF_ASC_NODE><ARG_OF_PERICENTER>124.0095</ARG_OF_PERICENTER><MEAN_ANOMALY>236.1188</MEAN_ANOMALY></meanElements><tleParameters><EPHEMERIS_TYPE>0</EPHEMERIS_TYPE><CLASSIFICATION_TYPE>U</CLASSIFICATION_TYPE><NORAD_CAT_ID>48771</NORAD_CAT_ID><ELEMENT_SET_NO>999</ELEMENT_SET_NO><REV_AT_EPOCH>15950</REV_AT_EPOCH><BSTAR>.13412E-3</BSTAR><MEAN_MOTION_DOT>.63E-6</MEAN_MOTION_DOT><MEAN_MOTION_DDOT>0</MEAN_MOTION_DDOT></tleParameters></data></segment></body></omm>
<omm id="CCSDS_OMM_VERS" version="2.0">
<header><CREATION_DATE/><ORIGINATOR/></header><body><segment><metadata><OBJECT_NAME>ONEWEB-0242</OBJECT_NAME><OBJECT_ID>2021-045F</OBJECT_ID><CENTER_NAME>EARTH</CENTER_NAME><REF_FRAME>TEME</REF_FRAME><TIME_SYSTEM>UTC</TIME_SYSTEM><MEAN_ELEMENT_THEORY>SGP4</MEAN_ELEMENT_THEORY></metadata><data><meanElements><EPOCH>2024-09-09T14:57:42.728544</EPOCH><MEAN_MOTION>13.15546738</MEAN_MOTION><ECCENTRICITY>.0001583</ECCENTRICITY><INCLINATION>87.9081</INCLINATION><RA_OF_ASC_NODE>27.6438</RA_OF_ASC_NODE><ARG_OF_PERICENTER>103.0588</ARG_OF_PERICENTER><MEAN_ANOMALY>257.0719</MEAN_ANOMALY></meanElements><tleParameters><EPHEMERIS_TYPE>0</EPHEMERIS_TYPE><CLASSIFICATION_TYPE>U</CLASSIFICATION_TYPE><NORAD_CAT_ID>48772</NORAD_CAT_ID><ELEMENT_SET_NO>999</ELEMENT_SET_NO><REV_AT_EPOCH>15954</REV_AT_EPOCH><BSTAR>.93972E-4</BSTAR><MEAN_MOTION_DOT>.48E-6</MEAN_MOTION_DOT><MEAN_MOTION_DDOT>0</MEAN_MOTION_DDOT></tleParameters></data></segment></body></omm>
<omm id="CCSDS_OMM_VERS" version="2.0">
<header><CREATION_DATE/><ORIGINATOR/></header><body><segment><metadata><OBJECT_NAME>ONEWEB-0241</OBJECT_NAME><OBJECT_ID>2021-045G</OBJECT_ID><CENTER_NAME>EARTH</CENTER_NAME><REF_FRAME>TEME</REF_FRAME><TIME_SYSTEM>UTC</TIME_SYSTEM><MEAN_ELEMENT_THEORY>SGP4</MEAN_ELEMENT_THEORY></metadata><data><meanElements><EPOCH>2024-09-09T09:10:54.561216</EPOCH><MEAN_MOTION>13.15550932</MEAN_MOTION><ECCENTRICITY>.0001924</ECCENTRICITY><INCLINATION>87.9090</INCLINATION><RA_OF_ASC_NODE>27.7465</RA_OF_ASC_NODE><ARG_OF_PERICENTER>109.7865</ARG_OF_PERICENTER><MEAN_ANOMALY>250.3473</MEAN_ANOMALY></meanElements><tleParameters><EPHEMERIS_TYPE>0</EPHEMERIS_TYPE><CLASSIFICATION_TYPE>U</CLASSIFICATION_TYPE><NORAD_CAT_ID>48773</NORAD_CAT_ID><ELEMENT_SET_NO>999</ELEMENT_SET_NO><REV_AT_EPOCH>15942</REV_AT_EPOCH><BSTAR>.36288E-3</BSTAR><MEAN_MOTION_DOT>.149E-5</MEAN_MOTION_DOT><MEAN_MOTION_DDOT>0</MEAN_MOTION_DDOT></tleParameters></data></segment></body></omm>
<omm id="CCSDS_OMM_VERS" version="2.0">
<header><CREATION_DATE/><ORIGINATOR/></header><body><segment><metadata><OBJECT_NAME>ONEWEB-0243</OBJECT_NAME><OBJECT_ID>2021-045H</OBJECT_ID><CENTER_NAME>EARTH</CENTER_NAME><REF_FRAME>TEME</REF_FRAME><TIME_SYSTEM>UTC</TIME_SYSTEM><MEAN_ELEMENT_THEORY>SGP4</MEAN_ELEMENT_THEORY></metadata><data><meanElements><EPOCH>2024-09-09T15:25:06.365856</EPOCH><MEAN_MOTION>13.15549672</MEAN_MOTION><ECCENTRICITY>.0001515</ECCENTRICITY><INCLINATION>87.9091</INCLINATION><RA_OF_ASC_NODE>27.6543</RA_OF_ASC_NODE><ARG_OF_PERICENTER>118.2737</ARG_OF_PERICENTER><MEAN_ANOMALY>241.8546</MEAN_ANOMALY></meanElements><tleParameters><EPHEMERIS_TYPE>0</EPHEMERIS_TYPE><CLASSIFICATION_TYPE>U</CLASSIFICATION_TYPE><NORAD_CAT_ID>48774</NORAD_CAT_ID><ELEMENT_SET_NO>999</ELEMENT_SET_NO><REV_AT_EPOCH>15948</REV_AT_EPOCH><BSTAR>.11915E-3</BSTAR><MEAN_MOTION_DOT>.58E-6</MEAN_MOTION_DOT><MEAN_MOTION_DDOT>0</MEAN_MOTION_DDOT></tleParameters></data></segment></body></omm>
<omm id="CCSDS_OMM_VERS" version="2.0">
<header><CREATION_DATE/><ORIGINATOR/></header><body><segment><metadata><OBJECT_NAME>ONEWEB-0222</OBJECT_NAME><OBJECT_ID>2021-045J</OBJECT_ID><CENTER_NAME>EARTH</CENTER_NAME><REF_FRAME>TEME</REF_FRAME><TIME_SYSTEM>UTC</TIME_SYSTEM><MEAN_ELEMENT_THEORY>SGP4</MEAN_ELEMENT_THEORY></metadata><data><meanElements><EPOCH>2024-09-09T15:01:07.903488</EPOCH><MEAN_MOTION>13.15550902</MEAN_MOTION><ECCENTRICITY>.0001831</ECCENTRICITY><INCLINATION>87.9080</INCLINATION><RA_OF_ASC_NODE>27.6524</RA_OF_ASC_NODE><ARG_OF_PERICENTER>107.2536</ARG_OF_PERICENTER><MEAN_ANOMALY>252.8795</MEAN_ANOMALY></meanElements><tleParameters><EPHEMERIS_TYPE>0</EPHEMERIS_TYPE><CLASSIFICATION_TYPE>U</CLASSIFICATION_TYPE><NORAD_CAT_ID>48775</NORAD_CAT_ID><ELEMENT_SET_NO>999</ELEMENT_SET_NO><REV_AT_EPOCH>15952</REV_AT_EPOCH><BSTAR>.23879E-3</BSTAR><MEAN_MOTION_DOT>.103E-5</MEAN_MOTION_DOT><MEAN_MOTION_DDOT>0</MEAN_MOTION_DDOT></tleParameters></data></segment></body></omm>

</ndm>
